{
  "type": "FeatureCollection",
  "features": [
    {
      "type": "Feature",
      "properties": {
        "norad_id": 33939,
        "name": "COSMOS 2251 DEB",
        "group": "cosmos-2251-debris",
        "lat": -27.910945314245218,
        "lon": -85.90253396784455,
        "alt_km": 575.2765156587802,
        "timestamp": "2025-12-10T09:57:45.090974+00:00",
        "meta_object_name": "COSMOS 2251 DEB",
        "meta_object_id": "1993-036EU",
        "meta_epoch": "2025-12-09T23:25:36.244416",
        "meta_mean_motion": 14.99537679,
        "meta_eccentricity": 0.0003112,
        "meta_inclination": 74.0073,
        "meta_ra_of_asc_node": 86.2517,
        "meta_arg_of_pericenter": 71.4511,
        "meta_mean_anomaly": 288.7013,
        "meta_ephemeris_type": 0,
        "meta_classification_type": "U",
        "meta_norad_cat_id": 33939,
        "meta_element_set_no": 999,
        "meta_rev_at_epoch": 88711,
        "meta_bstar": 0.0049484,
        "meta_mean_motion_dot": 0.00061326,
        "meta_mean_motion_ddot": 0,
        "tle_line1": "1 33939U 93036EU  25343.97611394  .00061326  00000+0  49484-2 0  9993",
        "tle_line2": "2 33939  74.0073  86.2517 0003112  71.4511 288.7013 14.99537679887119"
      },
      "geometry": {
        "type": "Point",
        "coordinates": [
          -85.90253396784455,
          -27.910945314245218
        ]
      }
    },
    {
      "type": "Feature",
      "properties": {
        "norad_id": 33940,
        "name": "COSMOS 2251 DEB",
        "group": "cosmos-2251-debris",
        "lat": -36.12261679586224,
        "lon": 135.86780702231144,
        "alt_km": 703.8288447814548,
        "timestamp": "2025-12-10T09:57:45.090984+00:00",
        "meta_object_name": "COSMOS 2251 DEB",
        "meta_object_id": "1993-036EV",
        "meta_epoch": "2025-12-10T04:05:15.178848",
        "meta_mean_motion": 14.58750042,
        "meta_eccentricity": 0.001145,
        "meta_inclination": 74.0399,
        "meta_ra_of_asc_node": 148.3892,
        "meta_arg_of_pericenter": 228.0856,
        "meta_mean_anomaly": 249.0699,
        "meta_ephemeris_type": 0,
        "meta_classification_type": "U",
        "meta_norad_cat_id": 33940,
        "meta_element_set_no": 999,
        "meta_rev_at_epoch": 88556,
        "meta_bstar": 0.0015655,
        "meta_mean_motion_dot": 7.296e-05,
        "meta_mean_motion_ddot": 0,
        "tle_line1": "1 33940U 93036EV  25344.17031457  .00007296  00000+0  15655-2 0  9993",
        "tle_line2": "2 33940  74.0399 148.3892 0011450 228.0856 249.0699 14.58750042885567"
      },
      "geometry": {
        "type": "Point",
        "coordinates": [
          135.86780702231144,
          -36.12261679586224
        ]
      }
    },
    {
      "type": "Feature",
      "properties": {
        "norad_id": 33942,
        "name": "COSMOS 2251 DEB",
        "group": "cosmos-2251-debris",
        "lat": -25.861428301670003,
        "lon": -88.86575685155846,
        "alt_km": 757.9249344585241,
        "timestamp": "2025-12-10T09:57:45.090994+00:00",
        "meta_object_name": "COSMOS 2251 DEB",
        "meta_object_id": "1993-036EX",
        "meta_epoch": "2025-12-10T03:41:30.054048",
        "meta_mean_motion": 14.37982195,
        "meta_eccentricity": 0.0020195,
        "meta_inclination": 74.0366,
        "meta_ra_of_asc_node": 279.5909,
        "meta_arg_of_pericenter": 3.3871,
        "meta_mean_anomaly": 57.7933,
        "meta_ephemeris_type": 0,
        "meta_classification_type": "U",
        "meta_norad_cat_id": 33942,
        "meta_element_set_no": 999,
        "meta_rev_at_epoch": 88097,
        "meta_bstar": 0.00037738,
        "meta_mean_motion_dot": 1.117e-05,
        "meta_mean_motion_ddot": 0,
        "tle_line1": "1 33942U 93036EX  25344.15382007  .00001117  00000+0  37738-3 0  9996",
        "tle_line2": "2 33942  74.0366 279.5909 0020195   3.3871  57.7933 14.37982195880974"
      },
      "geometry": {
        "type": "Point",
        "coordinates": [
          -88.86575685155846,
          -25.861428301670003
        ]
      }
    },
    {
      "type": "Feature",
      "properties": {
        "norad_id": 33944,
        "name": "COSMOS 2251 DEB",
        "group": "cosmos-2251-debris",
        "lat": -32.20193627170546,
        "lon": 143.58622641040728,
        "alt_km": 848.2775678167518,
        "timestamp": "2025-12-10T09:57:45.091004+00:00",
        "meta_object_name": "COSMOS 2251 DEB",
        "meta_object_id": "1993-036EZ",
        "meta_epoch": "2025-12-10T00:56:06.854208",
        "meta_mean_motion": 14.37333519,
        "meta_eccentricity": 0.0112079,
        "meta_inclination": 74.0401,
        "meta_ra_of_asc_node": 313.895,
        "meta_arg_of_pericenter": 54.2012,
        "meta_mean_anomaly": 13.4202,
        "meta_ephemeris_type": 0,
        "meta_classification_type": "U",
        "meta_norad_cat_id": 33944,
        "meta_element_set_no": 999,
        "meta_rev_at_epoch": 87989,
        "meta_bstar": 0.00050924,
        "meta_mean_motion_dot": 1.607e-05,
        "meta_mean_motion_ddot": 0,
        "tle_line1": "1 33944U 93036EZ  25344.03896822  .00001607  00000+0  50924-3 0  9996",
        "tle_line2": "2 33944  74.0401 313.8950 0112079  54.2012  13.4202 14.37333519879896"
      },
      "geometry": {
        "type": "Point",
        "coordinates": [
          143.58622641040728,
          -32.20193627170546
        ]
      }
    },
    {
      "type": "Feature",
      "properties": {
        "norad_id": 33945,
        "name": "COSMOS 2251 DEB",
        "group": "cosmos-2251-debris",
        "lat": 27.519319281282826,
        "lon": -40.89265783912209,
        "alt_km": 759.485064464392,
        "timestamp": "2025-12-10T09:57:45.091014+00:00",
        "meta_object_name": "COSMOS 2251 DEB",
        "meta_object_id": "1993-036FA",
        "meta_epoch": "2025-12-10T04:48:31.537728",
        "meta_mean_motion": 14.34597519,
        "meta_eccentricity": 0.0021796,
        "meta_inclination": 74.0296,
        "meta_ra_of_asc_node": 310.9202,
        "meta_arg_of_pericenter": 38.0387,
        "meta_mean_anomaly": 322.2299,
        "meta_ephemeris_type": 0,
        "meta_classification_type": "U",
        "meta_norad_cat_id": 33945,
        "meta_element_set_no": 999,
        "meta_rev_at_epoch": 87979,
        "meta_bstar": 0.0002242,
        "meta_mean_motion_dot": 6.09e-06,
        "meta_mean_motion_ddot": 0,
        "tle_line1": "1 33945U 93036FA  25344.20036502  .00000609  00000+0  22420-3 0  9998",
        "tle_line2": "2 33945  74.0296 310.9202 0021796  38.0387 322.2299 14.34597519879792"
      },
      "geometry": {
        "type": "Point",
        "coordinates": [
          -40.89265783912209,
          27.519319281282826
        ]
      }
    },
    {
      "type": "Feature",
      "properties": {
        "norad_id": 33948,
        "name": "COSMOS 2251 DEB",
        "group": "cosmos-2251-debris",
        "lat": -46.694002983064514,
        "lon": 147.0801686186865,
        "alt_km": 794.2657845457197,
        "timestamp": "2025-12-10T09:57:45.091024+00:00",
        "meta_object_name": "COSMOS 2251 DEB",
        "meta_object_id": "1993-036FD",
        "meta_epoch": "2025-12-10T00:32:11.969664",
        "meta_mean_motion": 14.35623877,
        "meta_eccentricity": 0.0022596,
        "meta_inclination": 74.0354,
        "meta_ra_of_asc_node": 310.1199,
        "meta_arg_of_pericenter": 26.7038,
        "meta_mean_anomaly": 333.5273,
        "meta_ephemeris_type": 0,
        "meta_classification_type": "U",
        "meta_norad_cat_id": 33948,
        "meta_element_set_no": 999,
        "meta_rev_at_epoch": 87984,
        "meta_bstar": 0.00031716,
        "meta_mean_motion_dot": 8.91e-06,
        "meta_mean_motion_ddot": 0,
        "tle_line1": "1 33948U 93036FD  25344.02236076  .00000891  00000+0  31716-3 0  9990",
        "tle_line2": "2 33948  74.0354 310.1199 0022596  26.7038 333.5273 14.35623877879844"
      },
      "geometry": {
        "type": "Point",
        "coordinates": [
          147.0801686186865,
          -46.694002983064514
        ]
      }
    },
    {
      "type": "Feature",
      "properties": {
        "norad_id": 33971,
        "name": "COSMOS 2251 DEB",
        "group": "cosmos-2251-debris",
        "lat": -72.43051915393093,
        "lon": 142.81109303810402,
        "alt_km": 767.7995348051563,
        "timestamp": "2025-12-10T09:57:45.091034+00:00",
        "meta_object_name": "COSMOS 2251 DEB",
        "meta_object_id": "1993-036FE",
        "meta_epoch": "2025-12-10T04:17:41.423424",
        "meta_mean_motion": 14.39717779,
        "meta_eccentricity": 0.001843,
        "meta_inclination": 74.0252,
        "meta_ra_of_asc_node": 258.4654,
        "meta_arg_of_pericenter": 359.3893,
        "meta_mean_anomaly": 119.928,
        "meta_ephemeris_type": 0,
        "meta_classification_type": "U",
        "meta_norad_cat_id": 33971,
        "meta_element_set_no": 999,
        "meta_rev_at_epoch": 88102,
        "meta_bstar": 0.00045281,
        "meta_mean_motion_dot": 1.394e-05,
        "meta_mean_motion_ddot": 0,
        "tle_line1": "1 33971U 93036FE  25344.17895166  .00001394  00000+0  45281-3 0  9994",
        "tle_line2": "2 33971  74.0252 258.4654 0018430 359.3893 119.9280 14.39717779881029"
      },
      "geometry": {
        "type": "Point",
        "coordinates": [
          142.81109303810402,
          -72.43051915393093
        ]
      }
    }
  ]
}